[
  {
    "name": "北京市",
    "province_adcode": 110000,
    "province_type": "直辖市",
    "name_en": "Beijing",
    "name_var": "Běi Jīng",
    "adcode": 110000
  },
  {
    "name": "天津市",
    "province_adcode": 120000,
    "province_type": "直辖市",
    "name_en": "Tianjin",
    "name_var": "Tiān Jīn",
    "adcode": 120000
  },
  {
    "name": "河北省",
    "province_adcode": 130000,
    "province_type": "省",
    "name_en": "Hebei",
    "name_var": "Hé Běi",
    "adcode": 130000
  },
  {
    "name": "山西省",
    "province_adcode": 140000,
    "province_type": "省",
    "name_en": "Shanxi",
    "name_var": "Shān Xī",
    "adcode": 140000
  },
  {
    "name": "内蒙古自治区",
    "province_adcode": 150000,
    "province_type": "自治区",
    "name_en": "Neimenggu",
    "name_var": "Nèi Měng Gǔ",
    "adcode": 150000
  },
  {
    "name": "辽宁省",
    "province_adcode": 210000,
    "province_type": "省",
    "name_en": "Liaoning",
    "name_var": "Liáo Níng",
    "adcode": 210000
  },
  {
    "name": "吉林省",
    "province_adcode": 220000,
    "province_type": "省",
    "name_en": "Jilin",
    "name_var": "Jí Lín",
    "adcode": 220000
  },
  {
    "name": "黑龙江省",
    "province_adcode": 230000,
    "province_type": "省",
    "name_en": "Heilongjiang",
    "name_var": "Hēi Lóng Jiāng",
    "adcode": 230000
  },
  {
    "name": "上海市",
    "province_adcode": 310000,
    "province_type": "直辖市",
    "name_en": "Shanghai",
    "name_var": "Shàng Hǎi",
    "adcode": 310000
  },
  {
    "name": "浙江省",
    "province_adcode": 330000,
    "province_type": "省",
    "name_en": "Zhejiang",
    "name_var": "Zhè Jiāng",
    "adcode": 330000
  },
  {
    "name": "安徽省",
    "province_adcode": 340000,
    "province_type": "省",
    "name_en": "Anhui",
    "name_var": "ān Huī",
    "adcode": 340000
  },
  {
    "name": "福建省",
    "province_adcode": 350000,
    "province_type": "省",
    "name_en": "Fujian",
    "name_var": "Fú Jiàn",
    "adcode": 350000
  },
  {
    "name": "江西省",
    "province_adcode": 360000,
    "province_type": "省",
    "name_en": "Jiangxi",
    "name_var": "Jiāng Xī",
    "adcode": 360000
  },
  {
    "name": "山东省",
    "province_adcode": 370000,
    "province_type": "省",
    "name_en": "Shandong",
    "name_var": "Shān Dōng",
    "adcode": 370000
  },
  {
    "name": "河南省",
    "province_adcode": 410000,
    "province_type": "省",
    "name_en": "Henan",
    "name_var": "Hé Nán",
    "adcode": 410000
  },
  {
    "name": "湖北省",
    "province_adcode": 420000,
    "province_type": "省",
    "name_en": "Hubei",
    "name_var": "Hú Běi",
    "adcode": 420000
  },
  {
    "name": "湖南省",
    "province_adcode": 430000,
    "province_type": "省",
    "name_en": "Hunan",
    "name_var": "Hú Nán",
    "adcode": 430000
  },
  {
    "name": "广东省",
    "province_adcode": 440000,
    "province_type": "省",
    "name_en": "Guangdong",
    "name_var": "Guǎng Dōng",
    "adcode": 440000
  },
  {
    "name": "广西壮族自治区",
    "province_adcode": 450000,
    "province_type": "自治区",
    "name_en": "Guangxi",
    "name_var": "Guǎng Xī",
    "adcode": 450000
  },
  {
    "name": "海南省",
    "province_adcode": 460000,
    "province_type": "省",
    "name_en": "Hainan",
    "name_var": "Hǎi Nán",
    "adcode": 460000
  },
  {
    "name": "重庆市",
    "province_adcode": 500000,
    "province_type": "直辖市",
    "name_en": "Chongqing",
    "name_var": "Chóng Qìng",
    "adcode": 500000
  },
  {
    "name": "四川省",
    "province_adcode": 510000,
    "province_type": "省",
    "name_en": "Sichuan",
    "name_var": "Sì Chuān",
    "adcode": 510000
  },
  {
    "name": "贵州省",
    "province_adcode": 520000,
    "province_type": "省",
    "name_en": "Guizhou",
    "name_var": "Guì Zhōu",
    "adcode": 520000
  },
  {
    "name": "云南省",
    "province_adcode": 530000,
    "province_type": "省",
    "name_en": "Yunnan",
    "name_var": "Yún Nán",
    "adcode": 530000
  },
  {
    "name": "西藏自治区",
    "province_adcode": 540000,
    "province_type": "自治区",
    "name_en": "Xizang",
    "name_var": "Xī Zàng",
    "adcode": 540000
  },
  {
    "name": "陕西省",
    "province_adcode": 610000,
    "province_type": "省",
    "name_en": "Shaanxi",
    "name_var": "Shǎn Xī",
    "adcode": 610000
  },
  {
    "name": "甘肃省",
    "province_adcode": 620000,
    "province_type": "省",
    "name_en": "Gansu",
    "name_var": "Gān Sù",
    "adcode": 620000
  },
  {
    "name": "青海省",
    "province_adcode": 630000,
    "province_type": "省",
    "name_en": "Qinghai",
    "name_var": "Qīng Hǎi",
    "adcode": 630000
  },
  {
    "name": "宁夏回族自治区",
    "province_adcode": 640000,
    "province_type": "自治区",
    "name_en": "Ningxia",
    "name_var": "Níng Xià Huí Zú",
    "adcode": 640000
  },
  {
    "name": "新疆维吾尔自治区",
    "province_adcode": 650000,
    "province_type": "自治区",
    "name_en": "Xinjiang",
    "name_var": "Xīn Jiāng",
    "adcode": 650000
  },
  {
    "name": "台湾省",
    "province_adcode": 710000,
    "province_type": "省",
    "name_en": "Taiwan",
    "name_var": "Tái Wān",
    "adcode": 710000
  },
  {
    "name": "香港特别行政区",
    "province_adcode": 810000,
    "province_type": "特别行政区",
    "name_en": "HongKong",
    "name_var": "Hong Kong",
    "adcode": 810000
  },
  {
    "name": "澳门特别行政区",
    "province_adcode": 820000,
    "province_type": "特别行政区",
    "name_en": "Aomen",
    "name_var": "ào Mén",
    "adcode": 820000
  },
  {
    "name": "江苏省",
    "province_adcode": 320000,
    "province_type": "省",
    "name_en": "Jiangsu",
    "name_var": "Jiāng Sū",
    "adcode": 320000
  },
  {
    "name": "",
    "adchar": "JD",
    "adcode": "100000_JD"
  }
]